OBJECT_NAME,OBJECT_ID,EPOCH,MEAN_MOTION,ECCENTRICITY,INCLINATION,RA_OF_ASC_NODE,ARG_OF_PERICENTER,MEAN_ANOMALY,EPHEMERIS_TYPE,CLASSIFICATION_TYPE,NORAD_CAT_ID,ELEMENT_SET_NO,REV_AT_EPOCH,BSTAR,MEAN_MOTION_DOT,MEAN_MOTION_DDOT
STARLINK-37916,2026-135V,2026-07-07T10:42:32.640768,15.81059901,.0001302,97.2852,216.6790,111.2549,248.8859,0,U,69565,999,346,.15591E-2,.312933E-2,0
STARLINK-37909,2026-135W,2026-07-07T01:26:34.519200,15.80917415,.0001482,97.2835,216.2870,140.4426,219.6950,0,U,69566,999,340,.13465E-2,.267059E-2,0
STARLINK-37934,2026-135X,2026-07-07T10:38:05.764128,15.81011723,.0003261,97.2845,216.6838,125.2579,234.8995,0,U,69567,999,346,.14681E-2,.293381E-2,0
STARLINK-37938,2026-135Y,2026-07-07T10:00:05.000256,15.75574060,.0001782,97.2851,216.6562,98.4946,116.4500,0,U,69568,999,456,-.18728E-1,-.2440429E-1,0
STARLINK-37924,2026-135Z,2026-07-07T12:01:45.719040,15.80805346,.0000913,97.2847,216.7572,64.4167,295.7196,0,U,69569,999,347,.43981E-3,.84884E-3,0
STARLINK-37656,2026-143A,2026-07-07T10:00:05.000256,15.56226689,.0001274,97.2844,232.2213,89.6875,341.9824,0,U,69649,999,371,-.36388E-1,-.2249474E-1,0
STARLINK-37646,2026-143B,2026-07-07T10:00:05.000256,15.70180210,.0001104,97.2854,232.3209,81.3683,230.9359,0,U,69650,999,371,-.60238E-2,-.671599E-2,0
STARLINK-37749,2026-143C,2026-07-07T10:00:05.000256,15.68897448,.0001294,97.2852,232.3253,92.2673,232.7318,0,U,69651,999,371,-.24756E-1,-.2481782E-1,0
STARLINK-37819,2026-143D,2026-07-07T10:00:05.000256,15.66822026,.0001462,97.2847,232.3067,103.4825,176.6352,0,U,69652,999,371,-.26906E-1,-.2477992E-1,0
STARLINK-37729,2026-143E,2026-07-07T10:00:05.000256,15.81942237,.0000728,97.2834,232.3496,172.0692,203.1296,0,U,69653,999,371,.25218E-3,.5102E-3,0
STARLINK-37838,2026-143F,2026-07-07T10:00:05.000256,15.75225060,.0001417,97.2848,232.3303,86.2209,251.1225,0,U,69654,999,371,-.19768E-1,-.2521257E-1,0
STARLINK-37884,2026-143G,2026-07-07T10:00:05.000256,15.63031861,.0001814,97.2848,232.3131,104.7551,183.3273,0,U,69655,999,371,-.30458E-1,-.2419371E-1,0
STARLINK-37876,2026-143H,2026-07-07T10:00:05.000256,15.73811970,.0001433,97.2849,232.3396,97.9434,260.1869,0,U,69656,999,361,-.19784E-1,-.2394282E-1,0
STARLINK-37784,2026-143J,2026-07-07T10:00:05.000256,15.65401255,.0001759,97.2847,232.3175,110.0654,188.7809,0,U,69657,999,361,-.27513E-1,-.2403438E-1,0
STARLINK-37851,2026-143K,2026-07-07T10:00:05.000256,15.71859432,.0001304,97.2848,232.3463,79.9115,294.6687,0,U,69658,999,360,-.18389E-1,-.2090036E-1,0
STARLINK-37229,2026-143L,2026-07-07T10:00:05.000256,15.69547058,.0001266,97.2852,232.3177,106.3891,201.0991,0,U,69659,999,365,-.24948E-1,-.2557935E-1,0
STARLINK-37556,2026-143M,2026-07-07T10:00:05.000256,15.71140133,.0001439,97.2852,232.3308,111.1466,216.3087,0,U,69660,999,365,-.21687E-1,-.2348536E-1,0
STARLINK-37867,2026-143N,2026-07-07T10:00:05.000256,15.71231570,.000143,97.2849,232.3501,78.1453,301.3813,0,U,69661,999,361,-.22066E-1,-.2391431E-1,0
STARLINK-37852,2026-143P,2026-07-07T10:00:05.000256,15.64426448,.0001708,97.2854,232.3094,105.0399,173.2649,0,U,69662,999,361,-.27897E-1,-.2350988E-1,0
STARLINK-37554,2026-143Q,2026-07-07T10:00:05.000256,15.69304555,.0001021,97.2848,232.3330,60.3565,283.5042,0,U,69663,999,365,-.12609E-1,-.1310978E-1,0
STARLINK-37830,2026-143R,2026-07-07T10:00:05.000256,15.66732256,.0001306,97.2853,232.3172,107.4996,200.5989,0,U,69664,999,360,-.27097E-1,-.248532E-1,0
STARLINK-37837,2026-143S,2026-07-07T10:00:05.000256,15.71549684,.0001355,97.2849,232.3405,75.6085,284.8103,0,U,69665,999,361,-.17472E-1,-.1975049E-1,0
STARLINK-37943,2026-143T,2026-07-07T10:00:05.000256,15.63768816,.0001591,97.2848,232.3197,104.8396,200.7855,0,U,69666,999,361,-.96624E-2,-.81644E-2,0
STARLINK-37941,2026-143U,2026-07-07T10:00:05.000256,15.68535261,.0001109,97.2849,232.3318,105.3270,236.8755,0,U,69667,999,361,-.83089E-2,-.847305E-2,0
STARLINK-37930,2026-143V,2026-07-07T10:00:05.000256,15.66467155,.0001054,97.2854,232.3291,105.3096,224.5588,0,U,69668,999,360,-.68437E-2,-.656537E-2,0
STARLINK-37945,2026-143W,2026-07-07T10:00:05.000256,15.72104960,.0001473,97.2848,232.3491,90.7022,291.6891,0,U,69669,999,361,-.22282E-1,-.2546481E-1,0
STARLINK-37948,2026-143X,2026-07-07T10:00:05.000256,15.55475171,.0001304,97.2855,232.3069,79.8546,197.7553,0,U,69670,999,361,-.43431E-1,-.2615126E-1,0
STARLINK-37949,2026-143Y,2026-07-07T10:00:05.000256,15.62614864,.0001197,97.2850,232.3368,82.2464,261.6899,0,U,69671,999,361,-.84599E-2,-.693491E-2,0
STARLINK-37946,2026-143Z,2026-07-07T10:00:05.000256,15.68180505,.0001396,97.2846,232.3509,75.8832,307.4316,0,U,69672,999,361,-.24739E-1,-.2417033E-1,0
STARLINK-38005,2026-145A,2026-07-07T10:13:53.353344,15.75375757,.0001236,97.2849,34.8789,75.7123,284.4279,0,U,69677,999,195,.10938E-2,.167598E-2,0
